{"fetched_at":"2026-03-29T02:12:04Z","count":15717,"tles":[{"name":"STARLINK-3978","line1":"1 52635U 22052AP  26087.55814790  .00001809  00000+0  13168-3 0  9993","line2":"2 52635  53.2149 174.4186 0001249  90.2404 269.8731 15.08846145213984","category":"Starlink"}]}